GSAT0101 (PRN E11)      
1 37846U 11060A   23163.41528490 -.00000093  00000+0  00000+0 0  9995
2 37846  57.0945  11.5680 0003980  46.5264 313.5492  1.70475960 72351
GSAT0102 (PRN E12)      
1 37847U 11060B   23164.41490361 -.00000094  00000+0  00000+0 0  9993
2 37847  57.0953  11.5408 0003524  14.8268 285.1928  1.70475348 72375
GSAT0103 (PRN E19)      
1 38857U 12055A   23164.04066869  .00000040  00000+0  00000+0 0  9991
2 38857  55.2562 131.7830 0005493 273.7405  86.1588  1.70473587 66257
GSAT0104 (PRN E20)      
1 38858U 12055B   23162.25050424  .00000052  00000+0  00000+0 0  9996
2 38858  55.2558 131.8337 0002985 276.2834  83.6492  1.70473804 66228
GSAT0201 (PRN E18)      
1 40128U 14050A   23164.33769645 -.00000118  00000+0  00000+0 0  9993
2 40128  50.0107 317.8841 1611972 137.1982 236.5641  1.85518996 57911
GSAT0202 (PRN E14)      
1 40129U 14050B   23164.59737716 -.00000119  00000+0  00000+0 0  9997
2 40129  50.0305 316.9437 1609617 138.0181 235.5265  1.85519620 60085
GSAT0203 (PRN E26)      
1 40544U 15017A   23162.02166636 -.00000090  00000+0  00000+0 0  9993
2 40544  56.8897  11.5903 0000970 272.3174  87.7131  1.70475729 50412
GSAT0204 (PRN E22)      
1 40545U 15017B   23164.03484961 -.00000094  00000+0  00000+0 0  9995
2 40545  56.8962  11.5493 0000901 208.2983 151.7396  1.70475495 13492
GSAT0205 (PRN E24)      
1 40889U 15045A   23164.38935894 -.00000022  00000+0  00000+0 0  9992
2 40889  55.4046 251.9905 0003448  22.6605 337.3959  1.70473978 48261
GSAT0206 (PRN E30)      
1 40890U 15045B   23164.02346921 -.00000023  00000+0  00000+0 0  9993
2 40890  55.4039 251.9962 0001591   6.0531 353.9892  1.70473944 48284
GSAT0209 (PRN E09)      
1 41174U 15079A   23163.60849945  .00000043  00000+0  00000+0 0  9994
2 41174  55.2736 131.5011 0005308 307.8081  52.1073  1.70474089 46011
GSAT0208 (PRN E08)      
1 41175U 15079B   23163.24149280  .00000046  00000+0  00000+0 0  9993
2 41175  55.2719 131.5093 0004634 306.8041  53.1181  1.70474073 46585
GSAT0211 (PRN E02)      
1 41549U 16030A   23160.42965794 -.00000013  00000+0  00000+0 0  9994
2 41549  55.5536 252.0666 0002903 314.8996  45.1256  1.70473745 43834
GSAT0210 (PRN E01)      
1 41550U 16030B   23164.24069423 -.00000022  00000+0  00000+0 0  9994
2 41550  55.5504 251.9628 0002770 269.6348  90.3743  1.70473943 43919
GSAT0207 (PRN E07)      
1 41859U 16069A   23163.90240209  .00000041  00000+0  00000+0 0  9993
2 41859  54.9360 131.5854 0005569 296.2743  63.6309  1.70474082 40645
GSAT0212 (PRN E03)      
1 41860U 16069B   23163.17058970  .00000046  00000+0  00000+0 0  9991
2 41860  54.9333 131.6027 0004077 315.1292  44.8029  1.70474253 40889
GSAT0213 (PRN E04)      
1 41861U 16069C   23164.12258603  .00000039  00000+0  00000+0 0  9995
2 41861  54.9360 131.5822 0005469 279.8364  80.0633  1.70472961 40768
GSAT0214 (PRN E05)      
1 41862U 16069D   23162.50999802  .00000050  00000+0  00000+0 0  9992
2 41862  54.9337 131.6209 0004535 282.4849  77.4306  1.70472813 40868
GSAT0215 (PRN E21)      
1 43055U 17079A   23163.58627200 -.00000024  00000+0  00000+0 0  9991
2 43055  55.5275 251.8067 0002258 260.0015 100.0131  1.70474657 34226
GSAT0216 (PRN E25)      
1 43056U 17079B   23162.11850815 -.00000023  00000+0  00000+0 0  9999
2 43056  55.5288 251.8471 0003481 270.9377  89.0645  1.70474782 34214
GSAT0217 (PRN E27)      
1 43057U 17079C   23161.75226013 -.00000021  00000+0  00000+0 0  9994
2 43057  55.5269 251.8564 0002894 290.5088  69.5035  1.70474796 34199
GSAT0218 (PRN E31)      
1 43058U 17079D   23164.31862427 -.00000022  00000+0  00000+0 0  9996
2 43058  55.5259 251.7831 0004537 267.2161  92.7734  1.70474683 34261
GSAT0221 (PRN E15)      
1 43564U 18060A   23164.21804915 -.00000093  00000+0  00000+0 0  9994
2 43564  57.2709  11.4376 0001951 312.6133  47.4134  1.70475647 30413
GSAT0222 (PRN E33)      
1 43565U 18060B   23162.67820613 -.00000091  00000+0  00000+0 0  9994
2 43565  57.2728  11.4800 0002002 333.9483  26.0836  1.70475537 30431
GSAT0219 (PRN E36)      
1 43566U 18060C   23164.07188260 -.00000093  00000+0  00000+0 0  9998
2 43566  57.2736  11.4446 0001766 342.9386  17.0986  1.70475628 30432
GSAT0220 (PRN E13)      
1 43567U 18060D   23163.70566526 -.00000093  00000+0  00000+0 0  9993
2 43567  57.2734  11.4542 0001635 329.3009  30.7323  1.70475428 30417
GSAT0223 (PRN E34)      
1 49809U 21116A   23162.97358456 -.00000092  00000+0  00000+0 0  9992
2 49809  57.2648  11.3704 0001792 126.2770 234.6925  1.70475448  9419
GSAT0224 (PRN E10)      
1 49810U 21116B   23164.84744927 -.00000094  00000+0  00000+0 0  9996
2 49810  57.2661  11.3181 0001979 106.7786  76.6988  1.70475593  9461
